XRISM                   
1 57800U 23137A   23323.52745574  .00003622  00000+0  28786-3 0  9994
2 57800  31.0041 270.7508 0010506 281.9592  77.9865 14.98638871 10950
